CCSDS_OMM_VERS = 2.0
CREATION_DATE  = 
ORIGINATOR     = 

OBJECT_NAME    = TITAN 4B R/B
OBJECT_ID      = 2000-047B
CENTER_NAME    = EARTH
REF_FRAME      = TEME
TIME_SYSTEM    = UTC
MEAN_ELEMENT_THEORY = SGP/SGP4

EPOCH          = 2025-11-19T06:33:51.347808
MEAN_MOTION    = 15.08546370
ECCENTRICITY   = .00409969
INCLINATION    = 67.9905
RA_OF_ASC_NODE = 350.7493
ARG_OF_PERICENTER = 172.1396
MEAN_ANOMALY   = 188.0405

EPHEMERIS_TYPE = 0
CLASSIFICATION_TYPE = U
NORAD_CAT_ID   = 26474
ELEMENT_SET_NO = 999
REV_AT_EPOCH   = 37625
BSTAR          = .24400868E-3
MEAN_MOTION_DOT = .3758E-4
MEAN_MOTION_DDOT = 0

CCSDS_OMM_VERS = 2.0
CREATION_DATE  = 
ORIGINATOR     = 

OBJECT_NAME    = ENVISAT
OBJECT_ID      = 2002-009A
CENTER_NAME    = EARTH
REF_FRAME      = TEME
TIME_SYSTEM    = UTC
MEAN_ELEMENT_THEORY = SGP/SGP4

EPOCH          = 2025-11-19T02:46:47.445024
MEAN_MOTION    = 14.38986863
ECCENTRICITY   = .00012513
INCLINATION    = 98.3561
RA_OF_ASC_NODE = 274.4598
ARG_OF_PERICENTER = 81.7009
MEAN_ANOMALY   = 291.4145

EPHEMERIS_TYPE = 0
CLASSIFICATION_TYPE = U
NORAD_CAT_ID   = 27386
ELEMENT_SET_NO = 999
REV_AT_EPOCH   = 24327
BSTAR          = .6824535E-4
MEAN_MOTION_DOT = .168E-5
MEAN_MOTION_DDOT = 0

CCSDS_OMM_VERS = 2.0
CREATION_DATE  = 
ORIGINATOR     = 

OBJECT_NAME    = IDEFIX & ARIANE 42P R/B
OBJECT_ID      = 2002-021B
CENTER_NAME    = EARTH
REF_FRAME      = TEME
TIME_SYSTEM    = UTC
MEAN_ELEMENT_THEORY = SGP/SGP4

EPOCH          = 2025-11-19T02:07:42.871296
MEAN_MOTION    = 14.30925800
ECCENTRICITY   = .00122219
INCLINATION    = 98.5750
RA_OF_ASC_NODE = 258.0909
ARG_OF_PERICENTER = 148.2694
MEAN_ANOMALY   = 211.9228

EPHEMERIS_TYPE = 0
CLASSIFICATION_TYPE = U
NORAD_CAT_ID   = 27422
ELEMENT_SET_NO = 999
REV_AT_EPOCH   = 22820
BSTAR          = .16147917E-3
MEAN_MOTION_DOT = .381E-5
MEAN_MOTION_DDOT = 0

CCSDS_OMM_VERS = 2.0
CREATION_DATE  = 
ORIGINATOR     = 

OBJECT_NAME    = AQUA
OBJECT_ID      = 2002-022A
CENTER_NAME    = EARTH
REF_FRAME      = TEME
TIME_SYSTEM    = UTC
MEAN_ELEMENT_THEORY = SGP/SGP4

EPOCH          = 2025-11-19T05:18:48.135744
MEAN_MOTION    = 14.61729693
ECCENTRICITY   = .00006563
INCLINATION    = 98.4002
RA_OF_ASC_NODE = 283.7240
ARG_OF_PERICENTER = 66.9552
MEAN_ANOMALY   = 49.8097

EPHEMERIS_TYPE = 0
CLASSIFICATION_TYPE = U
NORAD_CAT_ID   = 27424
ELEMENT_SET_NO = 999
REV_AT_EPOCH   = 25259
BSTAR          = .30240054E-3
MEAN_MOTION_DOT = .1458E-4
MEAN_MOTION_DDOT = 0

CCSDS_OMM_VERS = 2.0
CREATION_DATE  = 
ORIGINATOR     = 

OBJECT_NAME    = CZ-4B R/B
OBJECT_ID      = 2002-024C
CENTER_NAME    = EARTH
REF_FRAME      = TEME
TIME_SYSTEM    = UTC
MEAN_ELEMENT_THEORY = SGP/SGP4

EPOCH          = 2025-11-19T03:53:37.226688
MEAN_MOTION    = 14.14521009
ECCENTRICITY   = .0049712
INCLINATION    = 98.9036
RA_OF_ASC_NODE = 12.0122
ARG_OF_PERICENTER = 337.9892
MEAN_ANOMALY   = 85.8914

EPHEMERIS_TYPE = 0
CLASSIFICATION_TYPE = U
NORAD_CAT_ID   = 27432
ELEMENT_SET_NO = 999
REV_AT_EPOCH   = 21361
BSTAR          = .61525948E-4
MEAN_MOTION_DOT = .74E-6
MEAN_MOTION_DDOT = 0

CCSDS_OMM_VERS = 2.0
CREATION_DATE  = 
ORIGINATOR     = 

OBJECT_NAME    = MIDORI II (ADEOS-II)
OBJECT_ID      = 2002-056A
CENTER_NAME    = EARTH
REF_FRAME      = TEME
TIME_SYSTEM    = UTC
MEAN_ELEMENT_THEORY = SGP/SGP4

EPOCH          = 2025-11-19T02:56:06.326016
MEAN_MOTION    = 14.29182794
ECCENTRICITY   = .00010586
INCLINATION    = 98.7598
RA_OF_ASC_NODE = 275.9593
ARG_OF_PERICENTER = 25.9944
MEAN_ANOMALY   = 334.1291

EPHEMERIS_TYPE = 0
CLASSIFICATION_TYPE = U
NORAD_CAT_ID   = 27597
ELEMENT_SET_NO = 999
REV_AT_EPOCH   = 19450
BSTAR          = .15655384E-3
MEAN_MOTION_DOT = .352E-5
MEAN_MOTION_DDOT = 0

CCSDS_OMM_VERS = 2.0
CREATION_DATE  = 
ORIGINATOR     = 

OBJECT_NAME    = H-2A R/B
OBJECT_ID      = 2002-056E
CENTER_NAME    = EARTH
REF_FRAME      = TEME
TIME_SYSTEM    = UTC
MEAN_ELEMENT_THEORY = SGP/SGP4

EPOCH          = 2025-11-18T21:00:09.383904
MEAN_MOTION    = 14.33651153
ECCENTRICITY   = .0071139
INCLINATION    = 98.3028
RA_OF_ASC_NODE = 282.5871
ARG_OF_PERICENTER = 131.1554
MEAN_ANOMALY   = 256.0631

EPHEMERIS_TYPE = 0
CLASSIFICATION_TYPE = U
NORAD_CAT_ID   = 27601
ELEMENT_SET_NO = 999
REV_AT_EPOCH   = 19823
BSTAR          = .14588673E-3
MEAN_MOTION_DOT = .375E-5
MEAN_MOTION_DDOT = 0

CCSDS_OMM_VERS = 2.0
CREATION_DATE  = 
ORIGINATOR     = 

OBJECT_NAME    = CZ-4B R/B
OBJECT_ID      = 2003-049C
CENTER_NAME    = EARTH
REF_FRAME      = TEME
TIME_SYSTEM    = UTC
MEAN_ELEMENT_THEORY = SGP/SGP4

EPOCH          = 2025-11-19T05:05:57.261984
MEAN_MOTION    = 14.54878993
ECCENTRICITY   = .00476502
INCLINATION    = 98.6769
RA_OF_ASC_NODE = 308.8899
ARG_OF_PERICENTER = 207.6794
MEAN_ANOMALY   = 152.1865

EPHEMERIS_TYPE = 0
CLASSIFICATION_TYPE = U
NORAD_CAT_ID   = 28059
ELEMENT_SET_NO = 999
REV_AT_EPOCH   = 17053
BSTAR          = .13382849E-3
MEAN_MOTION_DOT = .532E-5
MEAN_MOTION_DDOT = 0

CCSDS_OMM_VERS = 2.0
CREATION_DATE  = 
ORIGINATOR     = 

OBJECT_NAME    = CZ-2C R/B
OBJECT_ID      = 2004-012C
CENTER_NAME    = EARTH
REF_FRAME      = TEME
TIME_SYSTEM    = UTC
MEAN_ELEMENT_THEORY = SGP/SGP4

EPOCH          = 2025-11-19T05:49:22.291968
MEAN_MOTION    = 15.53457717
ECCENTRICITY   = .00184449
INCLINATION    = 97.7465
RA_OF_ASC_NODE = 13.9597
ARG_OF_PERICENTER = 0.6083
MEAN_ANOMALY   = 359.5189

EPHEMERIS_TYPE = 0
CLASSIFICATION_TYPE = U
NORAD_CAT_ID   = 28222
ELEMENT_SET_NO = 999
REV_AT_EPOCH   = 18707
BSTAR          = .5516482E-3
MEAN_MOTION_DOT = .35219E-3
MEAN_MOTION_DDOT = 0

CCSDS_OMM_VERS = 2.0
CREATION_DATE  = 
ORIGINATOR     = 

OBJECT_NAME    = SL-16 R/B
OBJECT_ID      = 2004-021B
CENTER_NAME    = EARTH
REF_FRAME      = TEME
TIME_SYSTEM    = UTC
MEAN_ELEMENT_THEORY = SGP/SGP4

EPOCH          = 2025-11-19T03:28:19.947648
MEAN_MOTION    = 14.14577866
ECCENTRICITY   = .00063346
INCLINATION    = 70.9994
RA_OF_ASC_NODE = 104.4777
ARG_OF_PERICENTER = 224.6490
MEAN_ANOMALY   = 135.4123

EPHEMERIS_TYPE = 0
CLASSIFICATION_TYPE = U
NORAD_CAT_ID   = 28353
ELEMENT_SET_NO = 999
REV_AT_EPOCH   = 10720
BSTAR          = .1910132E-3
MEAN_MOTION_DOT = .319E-5
MEAN_MOTION_DDOT = 0

CCSDS_OMM_VERS = 2.0
CREATION_DATE  = 
ORIGINATOR     = 

OBJECT_NAME    = CZ-4B R/B
OBJECT_ID      = 2004-035C
CENTER_NAME    = EARTH
REF_FRAME      = TEME
TIME_SYSTEM    = UTC
MEAN_ELEMENT_THEORY = SGP/SGP4

EPOCH          = 2025-11-19T02:28:31.077408
MEAN_MOTION    = 15.26853689
ECCENTRICITY   = .0033799
INCLINATION    = 97.3640
RA_OF_ASC_NODE = 353.7690
ARG_OF_PERICENTER = 3.7198
MEAN_ANOMALY   = 356.4286

EPHEMERIS_TYPE = 0
CLASSIFICATION_TYPE = U
NORAD_CAT_ID   = 28415
ELEMENT_SET_NO = 999
REV_AT_EPOCH   = 16302
BSTAR          = .34216624E-3
MEAN_MOTION_DOT = .9106E-4
MEAN_MOTION_DDOT = 0

CCSDS_OMM_VERS = 2.0
CREATION_DATE  = 
ORIGINATOR     = 

OBJECT_NAME    = CZ-2C R/B
OBJECT_ID      = 2004-046B
CENTER_NAME    = EARTH
REF_FRAME      = TEME
TIME_SYSTEM    = UTC
MEAN_ELEMENT_THEORY = SGP/SGP4

EPOCH          = 2025-11-19T06:11:46.178304
MEAN_MOTION    = 14.26925865
ECCENTRICITY   = .01405631
INCLINATION    = 98.1967
RA_OF_ASC_NODE = 240.0984
ARG_OF_PERICENTER = 121.1715
MEAN_ANOMALY   = 240.3337

EPHEMERIS_TYPE = 0
CLASSIFICATION_TYPE = U
NORAD_CAT_ID   = 28480
ELEMENT_SET_NO = 999
REV_AT_EPOCH   = 9275
BSTAR          = .95327691E-4
MEAN_MOTION_DOT = .217E-5
MEAN_MOTION_DDOT = 0

