TITAN 4B R/B            
1 26474U 00047B   25323.27351097  .00003758  00000+0  24401-3 0  9999
2 26474  67.9905 350.7493 0040996 172.1396 188.0405 15.08546370376257
ENVISAT                 
1 27386U 02009A   25323.11582691  .00000168  00000+0  68245-4 0  9998
2 27386  98.3561 274.4598 0001251  81.7009 291.4145 14.38986863243273
IDEFIX & ARIANE 42P R/B 
1 27422U 02021B   25323.08869064  .00000381  00000+0  16148-3 0  9992
2 27422  98.5750 258.0909 0012221 148.2694 211.9228 14.30925800228209
AQUA                    
1 27424U 02022A   25323.22139046  .00001458  00000+0  30240-3 0  9996
2 27424  98.4002 283.7240 0000656  66.9552  49.8097 14.61729693252598
CZ-4B R/B               
1 27432U 02024C   25323.16223642  .00000074  00000+0  61526-4 0  9991
2 27432  98.9036  12.0122 0049712 337.9892  85.8914 14.14521009213612
MIDORI II (ADEOS-II)    
1 27597U 02056A   25323.12229544  .00000352  00000+0  15655-3 0  9991
2 27597  98.7598 275.9593 0001058  25.9944 334.1291 14.29182794194504
H-2A R/B                
1 27601U 02056E   25322.87510861  .00000375  00000+0  14589-3 0  9993
2 27601  98.3028 282.5871 0071139 131.1554 256.0631 14.33651153198230
CZ-4B R/B               
1 28059U 03049C   25323.21246831  .00000532  00000+0  13383-3 0  9992
2 28059  98.6769 308.8899 0047650 207.6794 152.1865 14.54878993170535
CZ-2C R/B               
1 28222U 04012C   25323.24261912  .00035219  00000+0  55165-3 0  9999
2 28222  97.7465  13.9597 0018444   0.6083 359.5189 15.53457717187076
SL-16 R/B               
1 28353U 04021B   25323.14467532  .00000319  00000+0  19101-3 0  9992
2 28353  70.9994 104.4777 0006334 224.6490 135.4123 14.14577866107202
CZ-4B R/B               
1 28415U 04035C   25323.10313747  .00009106  00000+0  34217-3 0  9998
2 28415  97.3640 353.7690 0033799   3.7198 356.4286 15.26853689163022
CZ-2C R/B               
1 28480U 04046B   25323.25817336  .00000217  00000+0  95328-4 0  9996
2 28480  98.1967 240.0984 0140563 121.1715 240.3337 14.26925865 92751
